name,address,lat,lon
,302 SOUTH ASH STREET PAYSON AZ 85541,34.23719,-111.32502
,103 MEDICINE WAY PERIDOT AZ 85542,33.29563,-110.4178
,SAN CARLOS AVE SAN CARLOS AZ 85550,33.35098,-110.45245
,1400 E ASH ST GLOBE AZ 85501,33.39548,-110.77138
,201 W FRONTIER ST PAYSON AZ 85541,34.23186,-111.32603
,1910 E MAPLE STREET GLOBE AZ 85501,33.39665,-110.7678
,4180 S AZ HWY 260 STAR VALLEY AZ 85541,34.25573,-111.25732
,520 VELASCO AVE HAYDEN AZ 85135,33.00294,-110.78476
,3 SAN CARLOS AVE SAN CARLOS AZ 85550,33.3505,-110.45279
,4635 SOUTH RAGUS RD MIAMI AZ 85539,33.40798,-110.83525
,601 E HWY 260 PAYSON AZ 85541,34.24081,-111.31408
,200 E TYLER PARKWAY PAYSON AZ 85541,34.26777,-111.32079
,302 SOUTH ASH STREET PAYSON AZ 85541,34.23719,-111.32502
,103 MEDICINE WAY PERIDOT AZ 85542,33.29563,-110.4178
,SAN CARLOS AVE SAN CARLOS AZ 85550,33.35098,-110.45245
,1400 E ASH ST GLOBE AZ 85501,33.39548,-110.77138
,201 W FRONTIER ST PAYSON AZ 85541,34.23186,-111.32603
,1910 E MAPLE STREET GLOBE AZ 85501,33.39665,-110.7678
,4180 S AZ HWY 260 STAR VALLEY AZ 85541,34.25573,-111.25732
,520 VELASCO AVE HAYDEN AZ 85135,33.00294,-110.78476
,3 SAN CARLOS AVE SAN CARLOS AZ 85550,33.3505,-110.45279
,4635 SOUTH RAGUS RD MIAMI AZ 85539,33.40798,-110.83525
,601 E HWY 260 PAYSON AZ 85541,34.24081,-111.31408
,200 E TYLER PARKWAY PAYSON AZ 85541,34.26777,-111.32079
,302 SOUTH ASH STREET PAYSON AZ 85541,34.23719,-111.32502
,103 MEDICINE WAY PERIDOT AZ 85542,33.29563,-110.4178
,SAN CARLOS AVE SAN CARLOS AZ 85550,33.35098,-110.45245
,1400 E ASH ST GLOBE AZ 85501,33.39548,-110.77138
,201 W FRONTIER ST PAYSON AZ 85541,34.23186,-111.32603
,1910 E MAPLE STREET GLOBE AZ 85501,33.39665,-110.7678
,4180 S AZ HWY 260 STAR VALLEY AZ 85541,34.25573,-111.25732
,520 VELASCO AVE HAYDEN AZ 85135,33.00294,-110.78476
,3 SAN CARLOS AVE SAN CARLOS AZ 85550,33.3505,-110.45279
,4635 SOUTH RAGUS RD MIAMI AZ 85539,33.40798,-110.83525
,601 E HWY 260 PAYSON AZ 85541,34.24081,-111.31408
,200 E TYLER PARKWAY PAYSON AZ 85541,34.26777,-111.32079
,302 SOUTH ASH STREET PAYSON AZ 85541,34.23719,-111.32502
,103 MEDICINE WAY PERIDOT AZ 85542,33.29563,-110.4178
,SAN CARLOS AVE SAN CARLOS AZ 85550,33.35098,-110.45245
,1400 E ASH ST GLOBE AZ 85501,33.39548,-110.77138
,201 W FRONTIER ST PAYSON AZ 85541,34.23186,-111.32603
,1910 E MAPLE STREET GLOBE AZ 85501,33.39665,-110.7678
,4180 S AZ HWY 260 STAR VALLEY AZ 85541,34.25573,-111.25732
,520 VELASCO AVE HAYDEN AZ 85135,33.00294,-110.78476
,3 SAN CARLOS AVE SAN CARLOS AZ 85550,33.3505,-110.45279
,4635 SOUTH RAGUS RD MIAMI AZ 85539,33.40798,-110.83525
,601 E HWY 260 PAYSON AZ 85541,34.24081,-111.31408
,200 E TYLER PARKWAY PAYSON AZ 85541,34.26777,-111.32079
,302 SOUTH ASH STREET PAYSON AZ 85541,34.23719,-111.32502
,103 MEDICINE WAY PERIDOT AZ 85542,33.29563,-110.4178
,SAN CARLOS AVE SAN CARLOS AZ 85550,33.35098,-110.45245
,1400 E ASH ST GLOBE AZ 85501,33.39548,-110.77138
,201 W FRONTIER ST PAYSON AZ 85541,34.23186,-111.32603
,1910 E MAPLE STREET GLOBE AZ 85501,33.39665,-110.7678
,4180 S AZ HWY 260 STAR VALLEY AZ 85541,34.25573,-111.25732
,520 VELASCO AVE HAYDEN AZ 85135,33.00294,-110.78476
,3 SAN CARLOS AVE SAN CARLOS AZ 85550,33.3505,-110.45279
,4635 SOUTH RAGUS RD MIAMI AZ 85539,33.40798,-110.83525
,601 E HWY 260 PAYSON AZ 85541,34.24081,-111.31408
,200 E TYLER PARKWAY PAYSON AZ 85541,34.26777,-111.32079
,302 SOUTH ASH STREET PAYSON AZ 85541,34.23719,-111.32502
,103 MEDICINE WAY PERIDOT AZ 85542,33.29563,-110.4178
,SAN CARLOS AVE SAN CARLOS AZ 85550,33.35098,-110.45245
,1400 E ASH ST GLOBE AZ 85501,33.39548,-110.77138
,201 W FRONTIER ST PAYSON AZ 85541,34.23186,-111.32603
,1910 E MAPLE STREET GLOBE AZ 85501,33.39665,-110.7678
,4180 S AZ HWY 260 STAR VALLEY AZ 85541,34.25573,-111.25732
,520 VELASCO AVE HAYDEN AZ 85135,33.00294,-110.78476
,3 SAN CARLOS AVE SAN CARLOS AZ 85550,33.3505,-110.45279
,4635 SOUTH RAGUS RD MIAMI AZ 85539,33.40798,-110.83525
,601 E HWY 260 PAYSON AZ 85541,34.24081,-111.31408
,200 E TYLER PARKWAY PAYSON AZ 85541,34.26777,-111.32079
,302 SOUTH ASH STREET PAYSON AZ 85541,34.23719,-111.32502
,103 MEDICINE WAY PERIDOT AZ 85542,33.29563,-110.4178
,SAN CARLOS AVE SAN CARLOS AZ 85550,33.35098,-110.45245
,1400 E ASH ST GLOBE AZ 85501,33.39548,-110.77138
,201 W FRONTIER ST PAYSON AZ 85541,34.23186,-111.32603
,1910 E MAPLE STREET GLOBE AZ 85501,33.39665,-110.7678
,4180 S AZ HWY 260 STAR VALLEY AZ 85541,34.25573,-111.25732
,520 VELASCO AVE HAYDEN AZ 85135,33.00294,-110.78476
,3 SAN CARLOS AVE SAN CARLOS AZ 85550,33.3505,-110.45279
,4635 SOUTH RAGUS RD MIAMI AZ 85539,33.40798,-110.83525
,601 E HWY 260 PAYSON AZ 85541,34.24081,-111.31408
,200 E TYLER PARKWAY PAYSON AZ 85541,34.26777,-111.32079
,302 SOUTH ASH STREET PAYSON AZ 85541,34.23719,-111.32502
,103 MEDICINE WAY PERIDOT AZ 85542,33.29563,-110.4178
,SAN CARLOS AVE SAN CARLOS AZ 85550,33.35098,-110.45245
,1400 E ASH ST GLOBE AZ 85501,33.39548,-110.77138
,201 W FRONTIER ST PAYSON AZ 85541,34.23186,-111.32603
,1910 E MAPLE STREET GLOBE AZ 85501,33.39665,-110.7678
,4180 S AZ HWY 260 STAR VALLEY AZ 85541,34.25573,-111.25732
,520 VELASCO AVE HAYDEN AZ 85135,33.00294,-110.78476
,3 SAN CARLOS AVE SAN CARLOS AZ 85550,33.3505,-110.45279
,4635 SOUTH RAGUS RD MIAMI AZ 85539,33.40798,-110.83525
,601 E HWY 260 PAYSON AZ 85541,34.24081,-111.31408
,200 E TYLER PARKWAY PAYSON AZ 85541,34.26777,-111.32079
,302 SOUTH ASH STREET PAYSON AZ 85541,34.23719,-111.32502
,103 MEDICINE WAY PERIDOT AZ 85542,33.29563,-110.4178
,SAN CARLOS AVE SAN CARLOS AZ 85550,33.35098,-110.45245
,1400 E ASH ST GLOBE AZ 85501,33.39548,-110.77138
,201 W FRONTIER ST PAYSON AZ 85541,34.23186,-111.32603
,1910 E MAPLE STREET GLOBE AZ 85501,33.39665,-110.7678
,4180 S AZ HWY 260 STAR VALLEY AZ 85541,34.25573,-111.25732
,520 VELASCO AVE HAYDEN AZ 85135,33.00294,-110.78476
,3 SAN CARLOS AVE SAN CARLOS AZ 85550,33.3505,-110.45279
,4635 SOUTH RAGUS RD MIAMI AZ 85539,33.40798,-110.83525
,601 E HWY 260 PAYSON AZ 85541,34.24081,-111.31408
,200 E TYLER PARKWAY PAYSON AZ 85541,34.26777,-111.32079
,302 SOUTH ASH STREET PAYSON AZ 85541,34.23719,-111.32502
,103 MEDICINE WAY PERIDOT AZ 85542,33.29563,-110.4178
,SAN CARLOS AVE SAN CARLOS AZ 85550,33.35098,-110.45245
,1400 E ASH ST GLOBE AZ 85501,33.39548,-110.77138
,201 W FRONTIER ST PAYSON AZ 85541,34.23186,-111.32603
,1910 E MAPLE STREET GLOBE AZ 85501,33.39665,-110.7678
,4180 S AZ HWY 260 STAR VALLEY AZ 85541,34.25573,-111.25732
,520 VELASCO AVE HAYDEN AZ 85135,33.00294,-110.78476
,3 SAN CARLOS AVE SAN CARLOS AZ 85550,33.3505,-110.45279
,4635 SOUTH RAGUS RD MIAMI AZ 85539,33.40798,-110.83525
,601 E HWY 260 PAYSON AZ 85541,34.24081,-111.31408
,200 E TYLER PARKWAY PAYSON AZ 85541,34.26777,-111.32079
,302 SOUTH ASH STREET PAYSON AZ 85541,34.23719,-111.32502
,103 MEDICINE WAY PERIDOT AZ 85542,33.29563,-110.4178
,SAN CARLOS AVE SAN CARLOS AZ 85550,33.35098,-110.45245
,1400 E ASH ST GLOBE AZ 85501,33.39548,-110.77138
,201 W FRONTIER ST PAYSON AZ 85541,34.23186,-111.32603
,1910 E MAPLE STREET GLOBE AZ 85501,33.39665,-110.7678
,4180 S AZ HWY 260 STAR VALLEY AZ 85541,34.25573,-111.25732
,520 VELASCO AVE HAYDEN AZ 85135,33.00294,-110.78476
,3 SAN CARLOS AVE SAN CARLOS AZ 85550,33.3505,-110.45279
,4635 SOUTH RAGUS RD MIAMI AZ 85539,33.40798,-110.83525
,601 E HWY 260 PAYSON AZ 85541,34.24081,-111.31408
,200 E TYLER PARKWAY PAYSON AZ 85541,34.26777,-111.32079
,302 SOUTH ASH STREET PAYSON AZ 85541,34.23719,-111.32502
,103 MEDICINE WAY PERIDOT AZ 85542,33.29563,-110.4178
,SAN CARLOS AVE SAN CARLOS AZ 85550,33.35098,-110.45245
,1400 E ASH ST GLOBE AZ 85501,33.39548,-110.77138
,201 W FRONTIER ST PAYSON AZ 85541,34.23186,-111.32603
,1910 E MAPLE STREET GLOBE AZ 85501,33.39665,-110.7678
,4180 S AZ HWY 260 STAR VALLEY AZ 85541,34.25573,-111.25732
,520 VELASCO AVE HAYDEN AZ 85135,33.00294,-110.78476
,3 SAN CARLOS AVE SAN CARLOS AZ 85550,33.3505,-110.45279
,4635 SOUTH RAGUS RD MIAMI AZ 85539,33.40798,-110.83525
,601 E HWY 260 PAYSON AZ 85541,34.24081,-111.31408
,200 E TYLER PARKWAY PAYSON AZ 85541,34.26777,-111.32079
,302 SOUTH ASH STREET PAYSON AZ 85541,34.23719,-111.32502
,103 MEDICINE WAY PERIDOT AZ 85542,33.29563,-110.4178
,SAN CARLOS AVE SAN CARLOS AZ 85550,33.35098,-110.45245
,1400 E ASH ST GLOBE AZ 85501,33.39548,-110.77138
,201 W FRONTIER ST PAYSON AZ 85541,34.23186,-111.32603
,1910 E MAPLE STREET GLOBE AZ 85501,33.39665,-110.7678
,4180 S AZ HWY 260 STAR VALLEY AZ 85541,34.25573,-111.25732
,520 VELASCO AVE HAYDEN AZ 85135,33.00294,-110.78476
,3 SAN CARLOS AVE SAN CARLOS AZ 85550,33.3505,-110.45279
,4635 SOUTH RAGUS RD MIAMI AZ 85539,33.40798,-110.83525
,601 E HWY 260 PAYSON AZ 85541,34.24081,-111.31408
,200 E TYLER PARKWAY PAYSON AZ 85541,34.26777,-111.32079
,302 SOUTH ASH STREET PAYSON AZ 85541,34.23719,-111.32502
,103 MEDICINE WAY PERIDOT AZ 85542,33.29563,-110.4178
,SAN CARLOS AVE SAN CARLOS AZ 85550,33.35098,-110.45245
,1400 E ASH ST GLOBE AZ 85501,33.39548,-110.77138
,201 W FRONTIER ST PAYSON AZ 85541,34.23186,-111.32603
,1910 E MAPLE STREET GLOBE AZ 85501,33.39665,-110.7678
,4180 S AZ HWY 260 STAR VALLEY AZ 85541,34.25573,-111.25732
,520 VELASCO AVE HAYDEN AZ 85135,33.00294,-110.78476
,3 SAN CARLOS AVE SAN CARLOS AZ 85550,33.3505,-110.45279
,4635 SOUTH RAGUS RD MIAMI AZ 85539,33.40798,-110.83525
,601 E HWY 260 PAYSON AZ 85541,34.24081,-111.31408
,200 E TYLER PARKWAY PAYSON AZ 85541,34.26777,-111.32079
,302 SOUTH ASH STREET PAYSON AZ 85541,34.23719,-111.32502
,103 MEDICINE WAY PERIDOT AZ 85542,33.29563,-110.4178
,SAN CARLOS AVE SAN CARLOS AZ 85550,33.35098,-110.45245
,1400 E ASH ST GLOBE AZ 85501,33.39548,-110.77138
,201 W FRONTIER ST PAYSON AZ 85541,34.23186,-111.32603
,1910 E MAPLE STREET GLOBE AZ 85501,33.39665,-110.7678
,4180 S AZ HWY 260 STAR VALLEY AZ 85541,34.25573,-111.25732
,520 VELASCO AVE HAYDEN AZ 85135,33.00294,-110.78476
,3 SAN CARLOS AVE SAN CARLOS AZ 85550,33.3505,-110.45279
,4635 SOUTH RAGUS RD MIAMI AZ 85539,33.40798,-110.83525
,601 E HWY 260 PAYSON AZ 85541,34.24081,-111.31408
,200 E TYLER PARKWAY PAYSON AZ 85541,34.26777,-111.32079
,302 SOUTH ASH STREET PAYSON AZ 85541,34.23719,-111.32502
,103 MEDICINE WAY PERIDOT AZ 85542,33.29563,-110.4178
,SAN CARLOS AVE SAN CARLOS AZ 85550,33.35098,-110.45245
,1400 E ASH ST GLOBE AZ 85501,33.39548,-110.77138
,201 W FRONTIER ST PAYSON AZ 85541,34.23186,-111.32603
,1910 E MAPLE STREET GLOBE AZ 85501,33.39665,-110.7678
,4180 S AZ HWY 260 STAR VALLEY AZ 85541,34.25573,-111.25732
,520 VELASCO AVE HAYDEN AZ 85135,33.00294,-110.78476
,3 SAN CARLOS AVE SAN CARLOS AZ 85550,33.3505,-110.45279
,4635 SOUTH RAGUS RD MIAMI AZ 85539,33.40798,-110.83525
,601 E HWY 260 PAYSON AZ 85541,34.24081,-111.31408
,200 E TYLER PARKWAY PAYSON AZ 85541,34.26777,-111.32079
,302 SOUTH ASH STREET PAYSON AZ 85541,34.23719,-111.32502
,103 MEDICINE WAY PERIDOT AZ 85542,33.29563,-110.4178
,SAN CARLOS AVE SAN CARLOS AZ 85550,33.35098,-110.45245
,1400 E ASH ST GLOBE AZ 85501,33.39548,-110.77138
,201 W FRONTIER ST PAYSON AZ 85541,34.23186,-111.32603
,1910 E MAPLE STREET GLOBE AZ 85501,33.39665,-110.7678
,4180 S AZ HWY 260 STAR VALLEY AZ 85541,34.25573,-111.25732
,520 VELASCO AVE HAYDEN AZ 85135,33.00294,-110.78476
,3 SAN CARLOS AVE SAN CARLOS AZ 85550,33.3505,-110.45279
,4635 SOUTH RAGUS RD MIAMI AZ 85539,33.40798,-110.83525
,601 E HWY 260 PAYSON AZ 85541,34.24081,-111.31408
,200 E TYLER PARKWAY PAYSON AZ 85541,34.26777,-111.32079
,302 SOUTH ASH STREET PAYSON AZ 85541,34.23719,-111.32502
,103 MEDICINE WAY PERIDOT AZ 85542,33.29563,-110.4178
,SAN CARLOS AVE SAN CARLOS AZ 85550,33.35098,-110.45245
,1400 E ASH ST GLOBE AZ 85501,33.39548,-110.77138
,201 W FRONTIER ST PAYSON AZ 85541,34.23186,-111.32603
,1910 E MAPLE STREET GLOBE AZ 85501,33.39665,-110.7678
,4180 S AZ HWY 260 STAR VALLEY AZ 85541,34.25573,-111.25732
,520 VELASCO AVE HAYDEN AZ 85135,33.00294,-110.78476
,3 SAN CARLOS AVE SAN CARLOS AZ 85550,33.3505,-110.45279
,4635 SOUTH RAGUS RD MIAMI AZ 85539,33.40798,-110.83525
,601 E HWY 260 PAYSON AZ 85541,34.24081,-111.31408
,200 E TYLER PARKWAY PAYSON AZ 85541,34.26777,-111.32079
,302 SOUTH ASH STREET PAYSON AZ 85541,34.23719,-111.32502
,103 MEDICINE WAY PERIDOT AZ 85542,33.29563,-110.4178
,SAN CARLOS AVE SAN CARLOS AZ 85550,33.35098,-110.45245
,1400 E ASH ST GLOBE AZ 85501,33.39548,-110.77138
,201 W FRONTIER ST PAYSON AZ 85541,34.23186,-111.32603
,1910 E MAPLE STREET GLOBE AZ 85501,33.39665,-110.7678
,4180 S AZ HWY 260 STAR VALLEY AZ 85541,34.25573,-111.25732
,520 VELASCO AVE HAYDEN AZ 85135,33.00294,-110.78476
,3 SAN CARLOS AVE SAN CARLOS AZ 85550,33.3505,-110.45279
,4635 SOUTH RAGUS RD MIAMI AZ 85539,33.40798,-110.83525
,601 E HWY 260 PAYSON AZ 85541,34.24081,-111.31408
,200 E TYLER PARKWAY PAYSON AZ 85541,34.26777,-111.32079
,302 SOUTH ASH STREET PAYSON AZ 85541,34.23719,-111.32502
,103 MEDICINE WAY PERIDOT AZ 85542,33.29563,-110.4178
,SAN CARLOS AVE SAN CARLOS AZ 85550,33.35098,-110.45245
,1400 E ASH ST GLOBE AZ 85501,33.39548,-110.77138
,201 W FRONTIER ST PAYSON AZ 85541,34.23186,-111.32603
,1910 E MAPLE STREET GLOBE AZ 85501,33.39665,-110.7678
,4180 S AZ HWY 260 STAR VALLEY AZ 85541,34.25573,-111.25732
,520 VELASCO AVE HAYDEN AZ 85135,33.00294,-110.78476
,3 SAN CARLOS AVE SAN CARLOS AZ 85550,33.3505,-110.45279
,4635 SOUTH RAGUS RD MIAMI AZ 85539,33.40798,-110.83525
,601 E HWY 260 PAYSON AZ 85541,34.24081,-111.31408
,200 E TYLER PARKWAY PAYSON AZ 85541,34.26777,-111.32079
,302 SOUTH ASH STREET PAYSON AZ 85541,34.23719,-111.32502
,103 MEDICINE WAY PERIDOT AZ 85542,33.29563,-110.4178
,SAN CARLOS AVE SAN CARLOS AZ 85550,33.35098,-110.45245
,1400 E ASH ST GLOBE AZ 85501,33.39548,-110.77138
,201 W FRONTIER ST PAYSON AZ 85541,34.23186,-111.32603
,1910 E MAPLE STREET GLOBE AZ 85501,33.39665,-110.7678
,4180 S AZ HWY 260 STAR VALLEY AZ 85541,34.25573,-111.25732
,520 VELASCO AVE HAYDEN AZ 85135,33.00294,-110.78476
,3 SAN CARLOS AVE SAN CARLOS AZ 85550,33.3505,-110.45279
,4635 SOUTH RAGUS RD MIAMI AZ 85539,33.40798,-110.83525
,601 E HWY 260 PAYSON AZ 85541,34.24081,-111.31408
,200 E TYLER PARKWAY PAYSON AZ 85541,34.26777,-111.32079
,302 SOUTH ASH STREET PAYSON AZ 85541,34.23719,-111.32502
,103 MEDICINE WAY PERIDOT AZ 85542,33.29563,-110.4178
,SAN CARLOS AVE SAN CARLOS AZ 85550,33.35098,-110.45245
,1400 E ASH ST GLOBE AZ 85501,33.39548,-110.77138
,201 W FRONTIER ST PAYSON AZ 85541,34.23186,-111.32603
,1910 E MAPLE STREET GLOBE AZ 85501,33.39665,-110.7678
,4180 S AZ HWY 260 STAR VALLEY AZ 85541,34.25573,-111.25732
,520 VELASCO AVE HAYDEN AZ 85135,33.00294,-110.78476
,3 SAN CARLOS AVE SAN CARLOS AZ 85550,33.3505,-110.45279
,4635 SOUTH RAGUS RD MIAMI AZ 85539,33.40798,-110.83525
,601 E HWY 260 PAYSON AZ 85541,34.24081,-111.31408
,200 E TYLER PARKWAY PAYSON AZ 85541,34.26777,-111.32079
,302 SOUTH ASH STREET PAYSON AZ 85541,34.23719,-111.32502
,103 MEDICINE WAY PERIDOT AZ 85542,33.29563,-110.4178
,SAN CARLOS AVE SAN CARLOS AZ 85550,33.35098,-110.45245
,1400 E ASH ST GLOBE AZ 85501,33.39548,-110.77138
,201 W FRONTIER ST PAYSON AZ 85541,34.23186,-111.32603
,1910 E MAPLE STREET GLOBE AZ 85501,33.39665,-110.7678
,4180 S AZ HWY 260 STAR VALLEY AZ 85541,34.25573,-111.25732
,520 VELASCO AVE HAYDEN AZ 85135,33.00294,-110.78476
,3 SAN CARLOS AVE SAN CARLOS AZ 85550,33.3505,-110.45279
,4635 SOUTH RAGUS RD MIAMI AZ 85539,33.40798,-110.83525
,601 E HWY 260 PAYSON AZ 85541,34.24081,-111.31408
,200 E TYLER PARKWAY PAYSON AZ 85541,34.26777,-111.32079
,302 SOUTH ASH STREET PAYSON AZ 85541,34.23719,-111.32502
,103 MEDICINE WAY PERIDOT AZ 85542,33.29563,-110.4178
,SAN CARLOS AVE SAN CARLOS AZ 85550,33.35098,-110.45245
,1400 E ASH ST GLOBE AZ 85501,33.39548,-110.77138
,201 W FRONTIER ST PAYSON AZ 85541,34.23186,-111.32603
,1910 E MAPLE STREET GLOBE AZ 85501,33.39665,-110.7678
,4180 S AZ HWY 260 STAR VALLEY AZ 85541,34.25573,-111.25732
,520 VELASCO AVE HAYDEN AZ 85135,33.00294,-110.78476
,3 SAN CARLOS AVE SAN CARLOS AZ 85550,33.3505,-110.45279
,4635 SOUTH RAGUS RD MIAMI AZ 85539,33.40798,-110.83525
,601 E HWY 260 PAYSON AZ 85541,34.24081,-111.31408
,200 E TYLER PARKWAY PAYSON AZ 85541,34.26777,-111.32079
,302 SOUTH ASH STREET PAYSON AZ 85541,34.23719,-111.32502
,103 MEDICINE WAY PERIDOT AZ 85542,33.29563,-110.4178
,SAN CARLOS AVE SAN CARLOS AZ 85550,33.35098,-110.45245
,1400 E ASH ST GLOBE AZ 85501,33.39548,-110.77138
,201 W FRONTIER ST PAYSON AZ 85541,34.23186,-111.32603
,1910 E MAPLE STREET GLOBE AZ 85501,33.39665,-110.7678
,4180 S AZ HWY 260 STAR VALLEY AZ 85541,34.25573,-111.25732
,520 VELASCO AVE HAYDEN AZ 85135,33.00294,-110.78476
,3 SAN CARLOS AVE SAN CARLOS AZ 85550,33.3505,-110.45279
,4635 SOUTH RAGUS RD MIAMI AZ 85539,33.40798,-110.83525
,601 E HWY 260 PAYSON AZ 85541,34.24081,-111.31408
,200 E TYLER PARKWAY PAYSON AZ 85541,34.26777,-111.32079
,302 SOUTH ASH STREET PAYSON AZ 85541,34.23719,-111.32502
,103 MEDICINE WAY PERIDOT AZ 85542,33.29563,-110.4178
,SAN CARLOS AVE SAN CARLOS AZ 85550,33.35098,-110.45245
,1400 E ASH ST GLOBE AZ 85501,33.39548,-110.77138
,201 W FRONTIER ST PAYSON AZ 85541,34.23186,-111.32603
,1910 E MAPLE STREET GLOBE AZ 85501,33.39665,-110.7678
,4180 S AZ HWY 260 STAR VALLEY AZ 85541,34.25573,-111.25732
,520 VELASCO AVE HAYDEN AZ 85135,33.00294,-110.78476
,3 SAN CARLOS AVE SAN CARLOS AZ 85550,33.3505,-110.45279
,4635 SOUTH RAGUS RD MIAMI AZ 85539,33.40798,-110.83525
,601 E HWY 260 PAYSON AZ 85541,34.24081,-111.31408
,200 E TYLER PARKWAY PAYSON AZ 85541,34.26777,-111.32079
,824 THORN AVENUE WINKELMAN AZ 85192,32.9907,-110.77134
,302 SOUTH ASH STREET PAYSON AZ 85541,34.23719,-111.32502
,103 MEDICINE WAY PERIDOT AZ 85542,33.29563,-110.4178
,SAN CARLOS AVE SAN CARLOS AZ 85550,33.35098,-110.45245
,1400 E ASH ST GLOBE AZ 85501,33.39548,-110.77138
,201 W FRONTIER ST PAYSON AZ 85541,34.23186,-111.32603
,1910 E MAPLE STREET GLOBE AZ 85501,33.39665,-110.7678
,4180 S AZ HWY 260 STAR VALLEY AZ 85541,34.25573,-111.25732
,520 VELASCO AVE HAYDEN AZ 85135,33.00294,-110.78476
,3 SAN CARLOS AVE SAN CARLOS AZ 85550,33.3505,-110.45279
,4635 SOUTH RAGUS RD MIAMI AZ 85539,33.40798,-110.83525
,601 E HWY 260 PAYSON AZ 85541,34.24081,-111.31408
,200 E TYLER PARKWAY PAYSON AZ 85541,34.26777,-111.32079
,302 SOUTH ASH STREET PAYSON AZ 85541,34.23719,-111.32502
,103 MEDICINE WAY PERIDOT AZ 85542,33.29563,-110.4178
,SAN CARLOS AVE SAN CARLOS AZ 85550,33.35098,-110.45245
,1400 E ASH ST GLOBE AZ 85501,33.39548,-110.77138
,201 W FRONTIER ST PAYSON AZ 85541,34.23186,-111.32603
,526 S VALLEY VIEW DR PAYSON AZ 85541,34.25985,-111.27335
,1910 E MAPLE STREET GLOBE AZ 85501,33.39665,-110.7678
,4180 S AZ HWY 260 STAR VALLEY AZ 85541,34.25573,-111.25732
,520 VELASCO AVE HAYDEN AZ 85135,33.00294,-110.78476
,3 SAN CARLOS AVE SAN CARLOS AZ 85550,33.3505,-110.45279
,4635 SOUTH RAGUS RD MIAMI AZ 85539,33.40798,-110.83525
,601 E HWY 260 PAYSON AZ 85541,34.24081,-111.31408
,200 E TYLER PARKWAY PAYSON AZ 85541,34.26777,-111.32079
,302 SOUTH ASH STREET PAYSON AZ 85541,34.23719,-111.32502
,103 MEDICINE WAY PERIDOT AZ 85542,33.29563,-110.4178
,SAN CARLOS AVE SAN CARLOS AZ 85550,33.35098,-110.45245
,1400 E ASH ST GLOBE AZ 85501,33.39548,-110.77138
,201 W FRONTIER ST PAYSON AZ 85541,34.23186,-111.32603
,1910 E MAPLE STREET GLOBE AZ 85501,33.39665,-110.7678
,4180 S AZ HWY 260 STAR VALLEY AZ 85541,34.25573,-111.25732
,520 VELASCO AVE HAYDEN AZ 85135,33.00294,-110.78476
,3 SAN CARLOS AVE SAN CARLOS AZ 85550,33.3505,-110.45279
,4635 SOUTH RAGUS RD MIAMI AZ 85539,33.40798,-110.83525
,601 E HWY 260 PAYSON AZ 85541,34.24081,-111.31408
,200 E TYLER PARKWAY PAYSON AZ 85541,34.26777,-111.32079
,4039 N AZ HWY 87 PINE AZ 85544,34.38991,-111.45428
,302 SOUTH ASH STREET PAYSON AZ 85541,34.23719,-111.32502
,103 MEDICINE WAY PERIDOT AZ 85542,33.29563,-110.4178
,SAN CARLOS AVE SAN CARLOS AZ 85550,33.35098,-110.45245
,1400 E ASH ST GLOBE AZ 85501,33.39548,-110.77138
,201 W FRONTIER ST PAYSON AZ 85541,34.23186,-111.32603
,1910 E MAPLE STREET GLOBE AZ 85501,33.39665,-110.7678
,4180 S AZ HWY 260 STAR VALLEY AZ 85541,34.25573,-111.25732
,520 VELASCO AVE HAYDEN AZ 85135,33.00294,-110.78476
,3 SAN CARLOS AVE SAN CARLOS AZ 85550,33.3505,-110.45279
,4635 SOUTH RAGUS RD MIAMI AZ 85539,33.40798,-110.83525
,601 E HWY 260 PAYSON AZ 85541,34.24081,-111.31408
,200 E TYLER PARKWAY PAYSON AZ 85541,34.26777,-111.32079
,4039 N AZ HWY 87 PINE AZ 85544,34.38991,-111.45428
,18659 AZ HWY 188 ROOSEVELT AZ 85545,33.60181,-111.00502
,302 SOUTH ASH STREET PAYSON AZ 85541,34.23719,-111.32502
,103 MEDICINE WAY PERIDOT AZ 85542,33.29563,-110.4178
,SAN CARLOS AVE SAN CARLOS AZ 85550,33.35098,-110.45245
,1400 E ASH ST GLOBE AZ 85501,33.39548,-110.77138
,201 W FRONTIER ST PAYSON AZ 85541,34.23186,-111.32603
,1910 E MAPLE STREET GLOBE AZ 85501,33.39665,-110.7678
,4180 S AZ HWY 260 STAR VALLEY AZ 85541,34.25573,-111.25732
,520 VELASCO AVE HAYDEN AZ 85135,33.00294,-110.78476
,3 SAN CARLOS AVE SAN CARLOS AZ 85550,33.3505,-110.45279
,4635 SOUTH RAGUS RD MIAMI AZ 85539,33.40798,-110.83525
,601 E HWY 260 PAYSON AZ 85541,34.24081,-111.31408
,200 E TYLER PARKWAY PAYSON AZ 85541,34.26777,-111.32079
,18659 AZ HWY 188 ROOSEVELT AZ 85545,33.60181,-111.00502
,302 SOUTH ASH STREET PAYSON AZ 85541,34.23719,-111.32502
,103 MEDICINE WAY PERIDOT AZ 85542,33.29563,-110.4178
,SAN CARLOS AVE SAN CARLOS AZ 85550,33.35098,-110.45245
,1400 E ASH ST GLOBE AZ 85501,33.39548,-110.77138
,201 W FRONTIER ST PAYSON AZ 85541,34.23186,-111.32603
,1910 E MAPLE STREET GLOBE AZ 85501,33.39665,-110.7678
,4180 S AZ HWY 260 STAR VALLEY AZ 85541,34.25573,-111.25732
,520 VELASCO AVE HAYDEN AZ 85135,33.00294,-110.78476
,3 SAN CARLOS AVE SAN CARLOS AZ 85550,33.3505,-110.45279
,4635 SOUTH RAGUS RD MIAMI AZ 85539,33.40798,-110.83525
,601 E HWY 260 PAYSON AZ 85541,34.24081,-111.31408
,200 E TYLER PARKWAY PAYSON AZ 85541,34.26777,-111.32079
,302 SOUTH ASH STREET PAYSON AZ 85541,34.23719,-111.32502
,103 MEDICINE WAY PERIDOT AZ 85542,33.29563,-110.4178
,SAN CARLOS AVE SAN CARLOS AZ 85550,33.35098,-110.45245
,1400 E ASH ST GLOBE AZ 85501,33.39548,-110.77138
,201 W FRONTIER ST PAYSON AZ 85541,34.23186,-111.32603
,4180 S AZ HWY 260 STAR VALLEY AZ 85541,34.25573,-111.25732
,1910 E MAPLE STREET GLOBE AZ 85501,33.39665,-110.7678
,520 VELASCO AVE HAYDEN AZ 85135,33.00294,-110.78476
,3 SAN CARLOS AVE SAN CARLOS AZ 85550,33.3505,-110.45279
,4635 SOUTH RAGUS RD MIAMI AZ 85539,33.40798,-110.83525
,601 E HWY 260 PAYSON AZ 85541,34.24081,-111.31408
,45675 AZ HWY 188 TONTO BASIN AZ 85553,33.85172,-111.31028
,200 E TYLER PARKWAY PAYSON AZ 85541,34.26777,-111.32079
,302 SOUTH ASH STREET PAYSON AZ 85541,34.23719,-111.32502
,103 MEDICINE WAY PERIDOT AZ 85542,33.29563,-110.4178
,SAN CARLOS AVE SAN CARLOS AZ 85550,33.35098,-110.45245
,1400 E ASH ST GLOBE AZ 85501,33.39548,-110.77138
,201 W FRONTIER ST PAYSON AZ 85541,34.23186,-111.32603
,1910 E MAPLE STREET GLOBE AZ 85501,33.39665,-110.7678
,4180 S AZ HWY 260 STAR VALLEY AZ 85541,34.25573,-111.25732
,520 VELASCO AVE HAYDEN AZ 85135,33.00294,-110.78476
,3 SAN CARLOS AVE SAN CARLOS AZ 85550,33.3505,-110.45279
,11209 N HOUSTON MESA RD PAYSON AZ 85541,34.37789,-111.28386
,4635 SOUTH RAGUS RD MIAMI AZ 85539,33.40798,-110.83525
,601 E HWY 260 PAYSON AZ 85541,34.24081,-111.31408
,200 E TYLER PARKWAY PAYSON AZ 85541,34.26777,-111.32079
,302 SOUTH ASH STREET PAYSON AZ 85541,34.23719,-111.32502
,103 MEDICINE WAY PERIDOT AZ 85542,33.29563,-110.4178
,SAN CARLOS AVE SAN CARLOS AZ 85550,33.35098,-110.45245
,1400 E ASH ST GLOBE AZ 85501,33.39548,-110.77138
,201 W FRONTIER ST PAYSON AZ 85541,34.23186,-111.32603
,1910 E MAPLE STREET GLOBE AZ 85501,33.39665,-110.7678
,4180 S AZ HWY 260 STAR VALLEY AZ 85541,34.25573,-111.25732
,520 VELASCO AVE HAYDEN AZ 85135,33.00294,-110.78476
,3 SAN CARLOS AVE SAN CARLOS AZ 85550,33.3505,-110.45279
,4635 SOUTH RAGUS RD MIAMI AZ 85539,33.40798,-110.83525
,601 E HWY 260 PAYSON AZ 85541,34.24081,-111.31408
,AZ HWY 288 YOUNG AZ 85554,34.10117,-110.96338
,200 E TYLER PARKWAY PAYSON AZ 85541,34.26777,-111.32079
,1036 CHRISTOPHER CREEK LOOP PAYSON AZ 85541,34.31681,-111.01694
,302 SOUTH ASH STREET PAYSON AZ 85541,34.23719,-111.32502
,103 MEDICINE WAY PERIDOT AZ 85542,33.29563,-110.4178
,SAN CARLOS AVE SAN CARLOS AZ 85550,33.35098,-110.45245
,1400 E ASH ST GLOBE AZ 85501,33.39548,-110.77138
,201 W FRONTIER ST PAYSON AZ 85541,34.23186,-111.32603
,1910 E MAPLE STREET GLOBE AZ 85501,33.39665,-110.7678
,4180 S AZ HWY 260 STAR VALLEY AZ 85541,34.25573,-111.25732
,520 VELASCO AVE HAYDEN AZ 85135,33.00294,-110.78476
,3 SAN CARLOS AVE SAN CARLOS AZ 85550,33.3505,-110.45279
,4635 SOUTH RAGUS RD MIAMI AZ 85539,33.40798,-110.83525
,601 E HWY 260 PAYSON AZ 85541,34.24081,-111.31408
,200 E TYLER PARKWAY PAYSON AZ 85541,34.26777,-111.32079
,302 SOUTH ASH STREET PAYSON AZ 85541,34.23719,-111.32502
,103 MEDICINE WAY PERIDOT AZ 85542,33.29563,-110.4178
,SAN CARLOS AVE SAN CARLOS AZ 85550,33.35098,-110.45245
,1400 E ASH ST GLOBE AZ 85501,33.39548,-110.77138
,4621 SOUTH 9TH STREET CANYON DAY AZ 85491,33.77804,-110.03032
,201 W FRONTIER ST PAYSON AZ 85541,34.23186,-111.32603
,1910 E MAPLE STREET GLOBE AZ 85501,33.39665,-110.7678
,4180 S AZ HWY 260 STAR VALLEY AZ 85541,34.25573,-111.25732
,520 VELASCO AVE HAYDEN AZ 85135,33.00294,-110.78476
,3 SAN CARLOS AVE SAN CARLOS AZ 85550,33.3505,-110.45279
,4635 SOUTH RAGUS RD MIAMI AZ 85539,33.40798,-110.83525
,601 E HWY 260 PAYSON AZ 85541,34.24081,-111.31408
,200 E TYLER PARKWAY PAYSON AZ 85541,34.26777,-111.32079
,302 SOUTH ASH STREET PAYSON AZ 85541,34.23719,-111.32502
,103 MEDICINE WAY PERIDOT AZ 85542,33.29563,-110.4178
,SAN CARLOS AVE SAN CARLOS AZ 85550,33.35098,-110.45245
,1400 E ASH ST GLOBE AZ 85501,33.39548,-110.77138
,201 W FRONTIER ST PAYSON AZ 85541,34.23186,-111.32603
,1910 E MAPLE STREET GLOBE AZ 85501,33.39665,-110.7678
,4180 S AZ HWY 260 STAR VALLEY AZ 85541,34.25573,-111.25732
,520 VELASCO AVE HAYDEN AZ 85135,33.00294,-110.78476
,3 SAN CARLOS AVE SAN CARLOS AZ 85550,33.3505,-110.45279
,4635 SOUTH RAGUS RD MIAMI AZ 85539,33.40798,-110.83525
,601 E HWY 260 PAYSON AZ 85541,34.24081,-111.31408
,200 E TYLER PARKWAY PAYSON AZ 85541,34.26777,-111.32079
,V-10 ROAD CARRIZO AZ 85491,35.18986,-119.8633
,302 SOUTH ASH STREET PAYSON AZ 85541,34.23719,-111.32502
,103 MEDICINE WAY PERIDOT AZ 85542,33.29563,-110.4178
,SAN CARLOS AVE SAN CARLOS AZ 85550,33.35098,-110.45245
,1400 E ASH ST GLOBE AZ 85501,33.39548,-110.77138
,201 W FRONTIER ST PAYSON AZ 85541,34.23186,-111.32603
,1910 E MAPLE STREET GLOBE AZ 85501,33.39665,-110.7678
,4180 S AZ HWY 260 STAR VALLEY AZ 85541,34.25573,-111.25732
,520 VELASCO AVE HAYDEN AZ 85135,33.00294,-110.78476
,3 SAN CARLOS AVE SAN CARLOS AZ 85550,33.3505,-110.45279
,4635 SOUTH RAGUS RD MIAMI AZ 85539,33.40798,-110.83525
,MOHAVE AVE & YAVAPAI ST SAN CARLOS AZ 85550,33.35689,-110.45128
,601 E HWY 260 PAYSON AZ 85541,34.24081,-111.31408
,200 E TYLER PARKWAY PAYSON AZ 85541,34.26777,-111.32079
